STARLINK-34052          
1 63874U 25094L   25327.89872481  .00004341  00000+0  37150-3 0  9994
2 63874  69.9996 141.3166 0002735 268.0528  92.0317 14.98320945 31357
STARLINK-34023          
1 63875U 25094M   25327.86532845  .00001919  00000+0  16861-3 0  9993
2 63875  70.0001 141.2017 0002916 263.1103  96.9724 14.98330689 31359
STARLINK-34061          
1 63876U 25094N   25327.91140687  .00003026  00000+0  26124-3 0  9993
2 63876  69.9999 141.3596 0002378 272.3298  87.7589 14.98336288 31353
STARLINK-33778          
1 63877U 25094P   25327.88636507  .00006289  00000+0  53416-3 0  9999
2 63877  69.9999 141.2683 0002982 272.7310  87.3508 14.98349641 31354
STARLINK-33901          
1 63878U 25094Q   25327.90303963  .00007587  00000+0  64250-3 0  9990
2 63878  70.0002 141.3276 0002835 267.9982  92.0852 14.98358954 31352
STARLINK-33812          
1 63879U 25094R   25327.87785258  .00004755  00000+0  40606-3 0  9991
2 63879  69.9999 141.2375 0002786 261.7140  98.3703 14.98327533 31350
STARLINK-33779          
1 63880U 25094S   25327.89455065  .00002309  00000+0  20120-3 0  9997
2 63880  70.0004 141.3030 0001981 265.6332  94.4601 14.98329123 31354
STARLINK-33905          
1 63881U 25094T   25327.91955564  .00017137  00000+0  14394-2 0  9990
2 63881  70.0015 140.9963 0003120 243.5696 116.5144 14.98357517 31369
STARLINK-34003          
1 63882U 25094U   25327.89068627  .00051407  00000+0  11685-2 0  9991
2 63882  69.9997 130.8601 0003198 277.4997  82.5821 15.42736453 31610
STARLINK-33968          
1 63883U 25094V   25327.90723433  .00005034  00000+0  42915-3 0  9993
2 63883  69.9995 141.3427 0003004 269.4042  90.6773 14.98348845 31351
STARLINK-33943          
1 63884U 25094W   25327.91539025  .00009552  00000+0  80691-3 0  9999
2 63884  70.0015 140.9751 0002530 262.3339  97.7533 14.98346986 31364
STARLINK-33858          
1 63885U 25094X   25327.94045588 -.00040818  00000+0 -34373-2 0  9996
2 63885  70.0025 141.0617 0002560 284.9275  75.1601 14.98283795 31365
STARLINK-33885          
1 63886U 25094Y   25327.85699242 -.00005857  00000+0 -48354-3 0  9998
2 63886  70.0000 141.1695 0003577 255.1561 104.9202 14.98320306 31350
STARLINK-33904          
1 63887U 25094Z   25327.91973479  .00005663  00000+0  48186-3 0  9999
2 63887  69.9999 140.9872 0003000 270.6687  89.4129 14.98340713 31361
STARLINK-33981          
1 63888U 25094AA  25327.89053647  .00000905  00000+0  83652-4 0  9995
2 63888  69.9999 141.2840 0002831 264.4143  95.6693 14.98335408 31359
STARLINK-33738          
1 63889U 25094AB  25327.94477075  .00002066  00000+0  18079-3 0  9997
2 63889  69.9998 141.0488 0003056 270.2981  89.7828 14.98345735 31583
STARLINK-34116          
1 63890U 25095A   25327.29113219  .00034375  00000+0  12516-2 0  9992
2 63890  43.0009  57.2693 0003905 293.6515  66.3926 15.27608108 31514
