[{"OBJECT_NAME":"STARLINK-34052","OBJECT_ID":"2025-094L","EPOCH":"2025-11-23T21:34:09.823584","MEAN_MOTION":14.98320945,"ECCENTRICITY":0.0002735,"INCLINATION":69.9996,"RA_OF_ASC_NODE":141.3166,"ARG_OF_PERICENTER":268.0528,"MEAN_ANOMALY":92.0317,"EPHEMERIS_TYPE":0,"CLASSIFICATION_TYPE":"U","NORAD_CAT_ID":63874,"ELEMENT_SET_NO":999,"REV_AT_EPOCH":3135,"BSTAR":0.0003715,"MEAN_MOTION_DOT":4.341e-5,"MEAN_MOTION_DDOT":0},{"OBJECT_NAME":"STARLINK-34023","OBJECT_ID":"2025-094M","EPOCH":"2025-11-23T20:46:04.378080","MEAN_MOTION":14.98330689,"ECCENTRICITY":0.0002916,"INCLINATION":70.0001,"RA_OF_ASC_NODE":141.2017,"ARG_OF_PERICENTER":263.1103,"MEAN_ANOMALY":96.9724,"EPHEMERIS_TYPE":0,"CLASSIFICATION_TYPE":"U","NORAD_CAT_ID":63875,"ELEMENT_SET_NO":999,"REV_AT_EPOCH":3135,"BSTAR":0.00016861,"MEAN_MOTION_DOT":1.919e-5,"MEAN_MOTION_DDOT":0},{"OBJECT_NAME":"STARLINK-34061","OBJECT_ID":"2025-094N","EPOCH":"2025-11-23T21:52:25.553568","MEAN_MOTION":14.98336288,"ECCENTRICITY":0.0002378,"INCLINATION":69.9999,"RA_OF_ASC_NODE":141.3596,"ARG_OF_PERICENTER":272.3298,"MEAN_ANOMALY":87.7589,"EPHEMERIS_TYPE":0,"CLASSIFICATION_TYPE":"U","NORAD_CAT_ID":63876,"ELEMENT_SET_NO":999,"REV_AT_EPOCH":3135,"BSTAR":0.00026124,"MEAN_MOTION_DOT":3.026e-5,"MEAN_MOTION_DDOT":0},{"OBJECT_NAME":"STARLINK-33778","OBJECT_ID":"2025-094P","EPOCH":"2025-11-23T21:16:21.942048","MEAN_MOTION":14.98349641,"ECCENTRICITY":0.0002982,"INCLINATION":69.9999,"RA_OF_ASC_NODE":141.2683,"ARG_OF_PERICENTER":272.731,"MEAN_ANOMALY":87.3508,"EPHEMERIS_TYPE":0,"CLASSIFICATION_TYPE":"U","NORAD_CAT_ID":63877,"ELEMENT_SET_NO":999,"REV_AT_EPOCH":3135,"BSTAR":0.00053416,"MEAN_MOTION_DOT":6.289e-5,"MEAN_MOTION_DDOT":0},{"OBJECT_NAME":"STARLINK-33901","OBJECT_ID":"2025-094Q","EPOCH":"2025-11-23T21:40:22.624032","MEAN_MOTION":14.98358954,"ECCENTRICITY":0.0002835,"INCLINATION":70.0002,"RA_OF_ASC_NODE":141.3276,"ARG_OF_PERICENTER":267.9982,"MEAN_ANOMALY":92.0852,"EPHEMERIS_TYPE":0,"CLASSIFICATION_TYPE":"U","NORAD_CAT_ID":63878,"ELEMENT_SET_NO":999,"REV_AT_EPOCH":3135,"BSTAR":0.0006425,"MEAN_MOTION_DOT":7.587e-5,"MEAN_MOTION_DDOT":0},{"OBJECT_NAME":"STARLINK-33812","OBJECT_ID":"2025-094R","EPOCH":"2025-11-23T21:04:06.462912","MEAN_MOTION":14.98327533,"ECCENTRICITY":0.0002786,"INCLINATION":69.9999,"RA_OF_ASC_NODE":141.2375,"ARG_OF_PERICENTER":261.714,"MEAN_ANOMALY":98.3703,"EPHEMERIS_TYPE":0,"CLASSIFICATION_TYPE":"U","NORAD_CAT_ID":63879,"ELEMENT_SET_NO":999,"REV_AT_EPOCH":3135,"BSTAR":0.00040606,"MEAN_MOTION_DOT":4.755e-5,"MEAN_MOTION_DDOT":0},{"OBJECT_NAME":"STARLINK-33779","OBJECT_ID":"2025-094S","EPOCH":"2025-11-23T21:28:09.176160","MEAN_MOTION":14.98329123,"ECCENTRICITY":0.0001981,"INCLINATION":70.0004,"RA_OF_ASC_NODE":141.303,"ARG_OF_PERICENTER":265.6332,"MEAN_ANOMALY":94.4601,"EPHEMERIS_TYPE":0,"CLASSIFICATION_TYPE":"U","NORAD_CAT_ID":63880,"ELEMENT_SET_NO":999,"REV_AT_EPOCH":3135,"BSTAR":0.0002012,"MEAN_MOTION_DOT":2.309e-5,"MEAN_MOTION_DDOT":0},{"OBJECT_NAME":"STARLINK-33905","OBJECT_ID":"2025-094T","EPOCH":"2025-11-23T22:04:09.607296","MEAN_MOTION":14.98357517,"ECCENTRICITY":0.000312,"INCLINATION":70.0015,"RA_OF_ASC_NODE":140.9963,"ARG_OF_PERICENTER":243.5696,"MEAN_ANOMALY":116.5144,"EPHEMERIS_TYPE":0,"CLASSIFICATION_TYPE":"U","NORAD_CAT_ID":63881,"ELEMENT_SET_NO":999,"REV_AT_EPOCH":3136,"BSTAR":0.0014394,"MEAN_MOTION_DOT":0.00017137,"MEAN_MOTION_DDOT":0},{"OBJECT_NAME":"STARLINK-34003","OBJECT_ID":"2025-094U","EPOCH":"2025-11-23T21:22:35.293728","MEAN_MOTION":15.42736453,"ECCENTRICITY":0.0003198,"INCLINATION":69.9997,"RA_OF_ASC_NODE":130.8601,"ARG_OF_PERICENTER":277.4997,"MEAN_ANOMALY":82.5821,"EPHEMERIS_TYPE":0,"CLASSIFICATION_TYPE":"U","NORAD_CAT_ID":63882,"ELEMENT_SET_NO":999,"REV_AT_EPOCH":3161,"BSTAR":0.0011685,"MEAN_MOTION_DOT":0.00051407,"MEAN_MOTION_DDOT":0},{"OBJECT_NAME":"STARLINK-33968","OBJECT_ID":"2025-094V","EPOCH":"2025-11-23T21:46:25.046112","MEAN_MOTION":14.98348845,"ECCENTRICITY":0.0003004,"INCLINATION":69.9995,"RA_OF_ASC_NODE":141.3427,"ARG_OF_PERICENTER":269.4042,"MEAN_ANOMALY":90.6773,"EPHEMERIS_TYPE":0,"CLASSIFICATION_TYPE":"U","NORAD_CAT_ID":63883,"ELEMENT_SET_NO":999,"REV_AT_EPOCH":3135,"BSTAR":0.00042915,"MEAN_MOTION_DOT":5.034e-5,"MEAN_MOTION_DDOT":0},{"OBJECT_NAME":"STARLINK-33943","OBJECT_ID":"2025-094W","EPOCH":"2025-11-23T21:58:09.717600","MEAN_MOTION":14.98346986,"ECCENTRICITY":0.000253,"INCLINATION":70.0015,"RA_OF_ASC_NODE":140.9751,"ARG_OF_PERICENTER":262.3339,"MEAN_ANOMALY":97.7533,"EPHEMERIS_TYPE":0,"CLASSIFICATION_TYPE":"U","NORAD_CAT_ID":63884,"ELEMENT_SET_NO":999,"REV_AT_EPOCH":3136,"BSTAR":0.00080691,"MEAN_MOTION_DOT":9.552e-5,"MEAN_MOTION_DDOT":0},{"OBJECT_NAME":"STARLINK-33858","OBJECT_ID":"2025-094X","EPOCH":"2025-11-23T22:34:15.388032","MEAN_MOTION":14.98283795,"ECCENTRICITY":0.000256,"INCLINATION":70.0025,"RA_OF_ASC_NODE":141.0617,"ARG_OF_PERICENTER":284.9275,"MEAN_ANOMALY":75.1601,"EPHEMERIS_TYPE":0,"CLASSIFICATION_TYPE":"U","NORAD_CAT_ID":63885,"ELEMENT_SET_NO":999,"REV_AT_EPOCH":3136,"BSTAR":-0.0034373,"MEAN_MOTION_DOT":-0.00040818,"MEAN_MOTION_DDOT":0},{"OBJECT_NAME":"STARLINK-33885","OBJECT_ID":"2025-094Y","EPOCH":"2025-11-23T20:34:04.145088","MEAN_MOTION":14.98320306,"ECCENTRICITY":0.0003577,"INCLINATION":70,"RA_OF_ASC_NODE":141.1695,"ARG_OF_PERICENTER":255.1561,"MEAN_ANOMALY":104.9202,"EPHEMERIS_TYPE":0,"CLASSIFICATION_TYPE":"U","NORAD_CAT_ID":63886,"ELEMENT_SET_NO":999,"REV_AT_EPOCH":3135,"BSTAR":-0.00048354,"MEAN_MOTION_DOT":-5.857e-5,"MEAN_MOTION_DDOT":0},{"OBJECT_NAME":"STARLINK-33904","OBJECT_ID":"2025-094Z","EPOCH":"2025-11-23T22:04:25.085856","MEAN_MOTION":14.98340713,"ECCENTRICITY":0.0003,"INCLINATION":69.9999,"RA_OF_ASC_NODE":140.9872,"ARG_OF_PERICENTER":270.6687,"MEAN_ANOMALY":89.4129,"EPHEMERIS_TYPE":0,"CLASSIFICATION_TYPE":"U","NORAD_CAT_ID":63887,"ELEMENT_SET_NO":999,"REV_AT_EPOCH":3136,"BSTAR":0.00048186,"MEAN_MOTION_DOT":5.663e-5,"MEAN_MOTION_DDOT":0},{"OBJECT_NAME":"STARLINK-33981","OBJECT_ID":"2025-094AA","EPOCH":"2025-11-23T21:22:22.351008","MEAN_MOTION":14.98335408,"ECCENTRICITY":0.0002831,"INCLINATION":69.9999,"RA_OF_ASC_NODE":141.284,"ARG_OF_PERICENTER":264.4143,"MEAN_ANOMALY":95.6693,"EPHEMERIS_TYPE":0,"CLASSIFICATION_TYPE":"U","NORAD_CAT_ID":63888,"ELEMENT_SET_NO":999,"REV_AT_EPOCH":3135,"BSTAR":8.3652e-5,"MEAN_MOTION_DOT":9.05e-6,"MEAN_MOTION_DDOT":0},{"OBJECT_NAME":"STARLINK-33738","OBJECT_ID":"2025-094AB","EPOCH":"2025-11-23T22:40:28.192800","MEAN_MOTION":14.98345735,"ECCENTRICITY":0.0003056,"INCLINATION":69.9998,"RA_OF_ASC_NODE":141.0488,"ARG_OF_PERICENTER":270.2981,"MEAN_ANOMALY":89.7828,"EPHEMERIS_TYPE":0,"CLASSIFICATION_TYPE":"U","NORAD_CAT_ID":63889,"ELEMENT_SET_NO":999,"REV_AT_EPOCH":3158,"BSTAR":0.00018079,"MEAN_MOTION_DOT":2.066e-5,"MEAN_MOTION_DDOT":0},{"OBJECT_NAME":"STARLINK-34116","OBJECT_ID":"2025-095A","EPOCH":"2025-11-23T06:59:13.821216","MEAN_MOTION":15.27608108,"ECCENTRICITY":0.0003905,"INCLINATION":43.0009,"RA_OF_ASC_NODE":57.2693,"ARG_OF_PERICENTER":293.6515,"MEAN_ANOMALY":66.3926,"EPHEMERIS_TYPE":0,"CLASSIFICATION_TYPE":"U","NORAD_CAT_ID":63890,"ELEMENT_SET_NO":999,"REV_AT_EPOCH":3151,"BSTAR":0.0012516,"MEAN_MOTION_DOT":0.00034375,"MEAN_MOTION_DDOT":0}]
